OBJECT_NAME,OBJECT_ID,EPOCH,MEAN_MOTION,ECCENTRICITY,INCLINATION,RA_OF_ASC_NODE,ARG_OF_PERICENTER,MEAN_ANOMALY,EPHEMERIS_TYPE,CLASSIFICATION_TYPE,NORAD_CAT_ID,ELEMENT_SET_NO,REV_AT_EPOCH,BSTAR,MEAN_MOTION_DOT,MEAN_MOTION_DDOT
IONOSFERA-M 2,2024-199B,2026-07-02T06:40:00.701760,14.22760418,.00004248,98.7152,56.1999,52.2463,307.8754,0,U,61736,999,13297,.46119139E-4,.59E-6,0
PRSC-EO1,2025-012A,2026-07-02T06:57:59.456736,15.17638262,.00057421,97.4220,255.4549,190.8064,169.3048,0,U,62725,999,8048,.4420285E-3,.8836E-4,0
BIOMASS,2025-090A,2026-07-01T18:19:10.848000,14.66988860,.0001206,98.0745,9.8640,90.1056,270.0287,0,U,63772,999,6282,.20136072E-3,.108E-4,0
GOSAT-GW (IBUKI GW),2025-141A,2026-07-02T07:50:03.911424,14.67554624,.00014809,98.0570,120.3972,82.5977,277.5396,0,U,64694,999,5406,.13295312E-3,.706E-5,0
IONOSFERA-M 3,2025-155A,2026-07-02T07:24:57.521376,14.21489055,.00018114,98.6032,144.8338,131.6720,228.4613,0,U,64876,999,4855,.48256561E-4,.63E-6,0
IONOSFERA-M 4,2025-155B,2026-07-02T06:33:44.054784,14.21491458,.0001554,98.6031,144.7163,111.8188,248.3155,0,U,64877,999,4854,.51916052E-4,.71E-6,0
MICROCARB,2025-156A,2026-07-02T02:22:57.703008,14.72859248,.00165406,97.9957,259.9846,213.2910,146.7259,0,U,64899,999,5016,.10025664E-3,.593E-5,0
CO3D 3,2025-156B,2026-07-02T04:41:07.556640,15.20211038,.00018613,97.4332,261.6724,111.8500,248.2933,0,U,64900,999,5181,.22315715E-3,.4768E-4,0
CO3D 4,2025-156C,2026-07-02T06:16:07.862304,15.20214902,.00009029,97.4333,261.7374,179.2811,180.8426,0,U,64901,999,5182,.13235371E-3,.28E-4,0
CO3D 2,2025-156D,2026-07-02T05:28:06.935520,15.20213327,.00014627,97.4332,261.6035,95.1968,264.9434,0,U,64902,999,5181,.24701076E-3,.5285E-4,0
CO3D 1,2025-156E,2026-07-02T05:28:20.319744,15.20193720,.00013327,97.4332,261.6038,101.6058,258.5326,0,U,64903,999,5181,.24322208E-3,.52E-4,0
PRSC-S1,2025-164A,2026-07-02T05:55:02.292384,15.06561815,.0005023,41.1287,202.9904,100.7130,259.4249,0,U,65055,999,5070,.22721067E-3,.3245E-4,0
SENTINEL-6B,2025-264A,2026-07-02T03:42:27.702720,12.80929982,.00079193,66.0412,104.0922,268.9345,91.0763,0,U,66514,999,2908,.58380963E-4,-.48E-6,0
CAS500-3,2025-274F,2026-07-02T06:35:48.266016,14.88358604,.00069,97.7442,110.9827,71.6686,288.5281,0,U,66655,999,3239,.16780749E-3,.15E-4,0
CSG-3,2026-001A,2026-07-02T06:05:32.754048,14.82164338,.00015068,97.8889,6.6376,96.0361,264.1024,0,U,67304,999,2669,.53643075E-4,.375E-5,0
PRSC-E03,2026-092A,2026-07-01T23:12:55.445760,15.06749675,.00032541,38.0021,2.5212,158.1362,201.9539,0,U,68835,999,1018,.23563517E-3,.3464E-4,0
CAS500-2,2026-100AK,2026-07-02T06:52:53.176512,15.20770055,.00089914,97.3884,80.8617,344.1271,15.9682,0,U,69013,999,910,.34122008E-3,.7457E-4,0
