IONOSFERA-M 2           
1 61736U 24199B   26183.27778590  .00000059  00000+0  46119-4 0  9991
2 61736  98.7152  56.1999 0000424  52.2463 307.8754 14.22760418132979
PRSC-EO1                
1 62725U 25012A   26183.29027149  .00008836  00000+0  44203-3 0  9996
2 62725  97.4220 255.4549 0005742 190.8064 169.3048 15.17638262 80480
BIOMASS                 
1 63772U 25090A   26182.76332000  .00001080  00000+0  20136-3 0  9994
2 63772  98.0745   9.8640 0001206  90.1056 270.0287 14.66988860 62827
GOSAT-GW (IBUKI GW)     
1 64694U 25141A   26183.32643416  .00000706  00000+0  13295-3 0  9996
2 64694  98.0570 120.3972 0001480  82.5977 277.5396 14.67554624 54063
IONOSFERA-M 3           
1 64876U 25155A   26183.30899909  .00000063  00000+0  48257-4 0  9994
2 64876  98.6032 144.8338 0001811 131.6720 228.4613 14.21489055 48550
IONOSFERA-M 4           
1 64877U 25155B   26183.27342656  .00000071  00000+0  51916-4 0  9998
2 64877  98.6031 144.7163 0001554 111.8188 248.3155 14.21491458 48548
MICROCARB               
1 64899U 25156A   26183.09927897  .00000593  00000+0  10026-3 0  9994
2 64899  97.9957 259.9846 0016540 213.2910 146.7259 14.72859248 50167
CO3D 3                  
1 64900U 25156B   26183.19522635  .00004768  00000+0  22316-3 0  9992
2 64900  97.4332 261.6724 0001861 111.8500 248.2933 15.20211038 51818
CO3D 4                  
1 64901U 25156C   26183.26120211  .00002800  00000+0  13235-3 0  9990
2 64901  97.4333 261.7374 0000902 179.2811 180.8426 15.20214902 51822
CO3D 2                  
1 64902U 25156D   26183.22785805  .00005285  00000+0  24701-3 0  9993
2 64902  97.4332 261.6035 0001462  95.1968 264.9434 15.20213327 51818
CO3D 1                  
1 64903U 25156E   26183.22801296  .00005200  00000+0  24322-3 0  9993
2 64903  97.4332 261.6038 0001332 101.6058 258.5326 15.20193720 51814
PRSC-S1                 
1 65055U 25164A   26183.24655431  .00003245  00000+0  22721-3 0  9999
2 65055  41.1287 202.9904 0005023 100.7130 259.4249 15.06561815 50709
SENTINEL-6B             
1 66514U 25264A   26183.15448730 -.00000048  00000+0  58381-4 0  9994
2 66514  66.0412 104.0922 0007919 268.9345  91.0763 12.80929982 29089
CAS500-3                
1 66655U 25274F   26183.27486419  .00001500  00000+0  16781-3 0  9990
2 66655  97.7442 110.9827 0006900  71.6686 288.5281 14.88358604 32398
CSG-3                   
1 67304U 26001A   26183.25385132  .00000375  00000+0  53643-4 0  9997
2 67304  97.8889   6.6376 0001506  96.0361 264.1024 14.82164338 26698
PRSC-E03                
1 68835U 26092A   26182.96730840  .00003464  00000+0  23564-3 0  9994
2 68835  38.0021   2.5212 0003254 158.1362 201.9539 15.06749675 10187
CAS500-2                
1 69013U 26100AK  26183.28672658  .00007457  00000+0  34122-3 0  9999
2 69013  97.3884  80.8617 0008991 344.1271  15.9682 15.20770055  9102
